[{"OBJECT_NAME":"SDA_1682","OBJECT_ID":"2025-230U","EPOCH":"2026-03-09T17:20:30.180192","MEAN_MOTION":13.84602017,"ECCENTRICITY":0.00025922,"INCLINATION":81.3027,"RA_OF_ASC_NODE":304.0041,"ARG_OF_PERICENTER":76.4793,"MEAN_ANOMALY":283.6653,"EPHEMERIS_TYPE":0,"CLASSIFICATION_TYPE":"U","NORAD_CAT_ID":65992,"ELEMENT_SET_NO":999,"REV_AT_EPOCH":2004,"BSTAR":-0.02644498,"MEAN_MOTION_DOT":-0.0002955,"MEAN_MOTION_DDOT":0},{"OBJECT_NAME":"COSMOS 1375 DEB","OBJECT_ID":"1982-055E","EPOCH":"2026-03-09T14:01:10.138368","MEAN_MOTION":13.89189214,"ECCENTRICITY":0.0060724,"INCLINATION":65.8351,"RA_OF_ASC_NODE":146.8551,"ARG_OF_PERICENTER":36.6224,"MEAN_ANOMALY":82.4685,"EPHEMERIS_TYPE":0,"CLASSIFICATION_TYPE":"U","NORAD_CAT_ID":16203,"ELEMENT_SET_NO":999,"REV_AT_EPOCH":21687,"BSTAR":4.3668e-5,"MEAN_MOTION_DOT":-3.0e-7,"MEAN_MOTION_DDOT":0}]
